STARLINK-31597          
1 59464U 24068K   26068.30533245 -.00000273  00000+0 -40808-6 0  9994
2 59464  43.0054  36.7110 0001151 266.8565  93.2155 15.27578443108415
2025-313BC              
1 67298U 25313BC  26068.18968176  .00075331  00000+0  26410-2 0  9997
2 67298  97.3985 144.8110 0008478 328.9209  31.1528 15.29126358  7890
